NAVSTAR 77 (USA 289)    
1 43873U 18109A   24127.44686122  .00000066  00000+0  00000+0 0  9993
2 43873  55.2814 122.6764 0028734 195.9505 336.0371  2.00553902 39593
